sat00426
1 00426U 62049B   20046.55899153  .00000022  00000-0  14673-4 0  9999
2 00426  80.4702  32.7433 0018850  71.0312  58.2266 13.68472283864251
